AGILA                   
1 62456U 24252C   26170.98933726 -.00000187  00000+0  00000+0 0  9996
2 62456   0.0633 124.0524 0001231 335.6115 316.8585  1.00271215  5185
NUVIEW BRAVO            
1 62457U 24252D   26171.16170049 -.00000220  00000+0  00000+0 0  9997
2 62457   0.0744 147.0243 0002062 337.1733 119.2657  1.00271819  3822
THURAYA-4               
1 62483U 25001A   26170.89350227  .00000134  00000+0  00000+0 0  9999
2 62483   0.0260  67.3649 0000129 235.0170 331.6905  1.00272730  4203
SHIJIAN-25 (SJ-25)      
1 62485U 25002A   26170.75248455 -.00000358  00000+0  00000+0 0  9995
2 62485   5.1202  61.1532 0052036 173.4051  71.5038  1.00262116  5381
TJS-14                  
1 62804U 25017A   26171.25309685  .00000111  00000+0  00000+0 0  9991
2 62804   0.7745 295.8736 0000867 280.8894 161.2537  1.00276013  5308
SPAINSAT NG I           
1 62852U 25021A   26171.03045817  .00000146  00000+0  00000+0 0  9997
2 62852   0.0178   1.7789 0000223 177.4851 128.9379  1.00271397  4017
QZS-6 (MICHIBIKI-6)     
1 62876U 25023A   26171.12472351 -.00000238  00000+0  00000+0 0  9995
2 62876   0.0607  73.3973 0001880  19.4849 310.8654  1.00270097  4971
ZHONGXING-10R           
1 63075U 25036A   26171.05745054 -.00000357  00000+0  00000+0 0  9998
2 63075   0.0087 314.3326 0003607 184.1596 260.9964  1.00270721  4987
TJS-15                  
1 63157U 25045A   26170.76765458 -.00000270  00000+0  00000+0 0  9990
2 63157   0.2929  85.4692 0004637 298.6464 254.6176  1.00270698  4782
TIANLIAN 2-04           
1 63361U 25062A   26171.19377041 -.00000140  00000+0  00000+0 0  9997
2 63361   4.3658 274.3974 0031563  10.4148 133.4111  1.00271969  4631
TJS-16                  
1 63397U 25064A   26170.71089339 -.00000111  00000+0  00000+0 0  9993
2 63397   1.1057  81.4481 0003316 291.9066 311.1070  1.00271600  4415
TJS-17                  
1 63524U 25073A   26170.71167340 -.00000075  00000+0  00000+0 0  9993
2 63524   1.0716  82.6782 0002058 300.7675 305.2332  1.00272517  4314
TIANLIAN 2-05           
1 63662U 25084A   26171.11085677  .00000119  00000+0  00000+0 0  9993
2 63662   4.4427 279.8043 0003185 149.1030 259.6689  1.00272201  4413
TJS-19                  
1 63924U 25097A   26170.76933219 -.00000282  00000+0  00000+0 0  9994
2 63924   3.2813 317.4993 0002894 247.7476 120.8851  1.00275756  4179
CHINASAT 3B             
1 64062U 25106A   26170.92605017 -.00000051  00000+0  00000+0 0  9993
2 64062   0.0316 127.6515 0002996 356.8767 284.2969  1.00270413  4085
SXM-10                  
1 64290U 25122A   26171.22642882 -.00000022  00000+0  00000+0 0  9997
2 64290   0.0221  36.7203 0001885 326.6240 230.4404  1.00272134  3712
COSMOS 2589             
1 64467U 25131A   26170.77238926 -.00000296  00000+0  00000+0 0  9995
2 64467   0.0416  86.6775 0000210  22.0919 175.2579  1.00271484  3584
CHINASAT 9C             
1 64470U 25132A   26171.12489684 -.00000253  00000+0  00000+0 0  9992
2 64470   0.0135  60.7381 0003075  25.9398 318.8046  1.00273496  4172
MTG-S1                  
1 64723U 25143A   26171.24893683 -.00000006  00000+0  00000+0 0  9992
2 64723   0.6005 339.6947 0000837 293.6415  82.1875  1.00399656  3456
DROR 1                  
1 64784U 25148A   26171.24859016 -.00000039  00000+0  00000+0 0  9992
2 64784   0.0434  72.4195 0002634 318.5988 322.9231  1.00271283  3321
SHIYAN-29               
1 65486U 25196A   26171.05415719 -.00000285  00000+0  00000+0 0  9995
2 65486  28.8247  18.4992 0012539 177.1148 186.8195  1.00284739  2918
NUSANTARA LIMA (NUSANT*)
1 65588U 25205A   26171.23378127 -.00000362  00000+0  00000+0 0  9996
2 65588   0.0402 170.2138 0000106 338.1799 317.0614  1.00270888  2759
TJS-20                  
1 66142U 25238A   26171.01460796  .00000019  00000+0  00000+0 0  9997
2 66142   5.4622 299.5493 0004189 158.1883 238.2077  1.00267297  2361
CMS-03 (GSAT-7R)        
1 66311U 25249B   26171.19281706 -.00000082  00000+0  00000+0 0  9999
2 66311   0.0148  76.5869 0001679   6.2769 328.9376  1.00271424  2377
VIASAT-3 F2             
1 66454U 25261A   26170.87735519 -.00000239  00000+0  00000+0 0  9995
2 66454   0.0363 174.4747 0000047 277.7870  52.7047  1.00270370  2829
SHIJIAN-28 (SJ-28)      
1 66549U 25277A   26171.21711646 -.00000365  00000+0  00000+0 0  9991
2 66549   4.5294 272.0859 0001147  39.5366 151.7418  1.00276113  2183
TJS-22                  
1 66990U 25290A   26170.86856550 -.00000013  00000+0  00000+0 0  9990
2 66990   1.5225 286.5967 0001954 330.2294  30.4576  1.00274060  2054
TJS-23                  
1 67226U 25306A   26170.59511561  .00000010  00000+0  00000+0 0  9997
2 67226   5.5825 297.4740 0004725 175.6001 184.5544  1.00266223  1915
FENGYUN 4C              
1 67246U 25312A   26171.27573625 -.00000328  00000+0  00000+0 0  9994
2 67246   0.0452 144.2582 0000332  54.3344 302.1536  1.00271020  1818
SHIJIAN-29A (SJ-29A)    
1 67302U 25315A   26171.12134348 -.00000072  00000+0  00000+0 0  9995
2 67302   3.4063  95.0344 0003259  24.0481 266.1065  1.00270153  1645
SHIJIAN-29B (SJ-29B)    
1 67403U 25315C   26171.12134348 -.00000073  00000+0  00000+0 0  9998
2 67403   3.4052  95.0273 0004056  34.8918 255.3079  1.00270047  1711
ELEKTRO-L 5             
1 67756U 26028A   26171.04359116 -.00000103  00000+0  00000+0 0  9998
2 67756   0.2466 312.6978 0001749 180.6855 226.6194  1.00272291  1286
