OBJECT_NAME,OBJECT_ID,EPOCH,MEAN_MOTION,ECCENTRICITY,INCLINATION,RA_OF_ASC_NODE,ARG_OF_PERICENTER,MEAN_ANOMALY,EPHEMERIS_TYPE,CLASSIFICATION_TYPE,NORAD_CAT_ID,ELEMENT_SET_NO,REV_AT_EPOCH,BSTAR,MEAN_MOTION_DOT,MEAN_MOTION_DDOT
AGILA,2024-252C,2026-06-19T23:44:38.739264,1.00271215,.00012318,0.0633,124.0524,335.6115,316.8585,0,U,62456,999,518,0,-.187E-5,0
NUVIEW BRAVO,2024-252D,2026-06-20T03:52:50.922336,1.00271819,.00020628,0.0744,147.0243,337.1733,119.2657,0,U,62457,999,382,0,-.22E-5,0
THURAYA-4,2025-001A,2026-06-19T21:26:38.596128,1.00272730,.0000129,0.0260,67.3649,235.0170,331.6905,0,U,62483,999,420,0,.134E-5,0
SHIJIAN-25 (SJ-25),2025-002A,2026-06-19T18:03:34.665120,1.00262116,.0052036,5.1202,61.1532,173.4051,71.5038,0,U,62485,999,538,0,-.358E-5,0
TJS-14,2025-017A,2026-06-20T06:04:27.567840,1.00276013,.00008676,0.7745,295.8736,280.8894,161.2537,0,U,62804,999,530,0,.111E-5,0
SPAINSAT NG I,2025-021A,2026-06-20T00:43:51.585888,1.00271397,.00002234,0.0178,1.7789,177.4851,128.9379,0,U,62852,999,401,0,.146E-5,0
QZS-6 (MICHIBIKI-6),2025-023A,2026-06-20T02:59:36.111264,1.00270097,.00018807,0.0607,73.3973,19.4849,310.8654,0,U,62876,999,497,0,-.238E-5,0
ZHONGXING-10R,2025-036A,2026-06-20T01:22:43.726656,1.00270721,.00036079,0.0087,314.3326,184.1596,260.9964,0,U,63075,999,498,0,-.357E-5,0
TJS-15,2025-045A,2026-06-19T18:25:25.355712,1.00270698,.0004637,0.2929,85.4692,298.6464,254.6176,0,U,63157,999,478,0,-.27E-5,0
TIANLIAN 2-04,2025-062A,2026-06-20T04:39:01.763424,1.00271969,.00315639,4.3658,274.3974,10.4148,133.4111,0,U,63361,999,463,0,-.14E-5,0
TJS-16,2025-064A,2026-06-19T17:03:41.188896,1.00271600,.0003316,1.1057,81.4481,291.9066,311.1070,0,U,63397,999,441,0,-.111E-5,0
TJS-17,2025-073A,2026-06-19T17:04:48.581760,1.00272517,.0002058,1.0716,82.6782,300.7675,305.2332,0,U,63524,999,431,0,-.75E-6,0
TIANLIAN 2-05,2025-084A,2026-06-20T02:39:38.024928,1.00272201,.00031857,4.4427,279.8043,149.1030,259.6689,0,U,63662,999,441,0,.119E-5,0
TJS-19,2025-097A,2026-06-19T18:27:50.301216,1.00275756,.0002894,3.2813,317.4993,247.7476,120.8851,0,U,63924,999,417,0,-.282E-5,0
CHINASAT 3B,2025-106A,2026-06-19T22:13:30.734688,1.00270413,.00029961,0.0316,127.6515,356.8767,284.2969,0,U,64062,999,408,0,-.51E-6,0
SXM-10,2025-122A,2026-06-20T05:26:03.450048,1.00272134,.00018854,0.0221,36.7203,326.6240,230.4404,0,U,64290,999,371,0,-.22E-6,0
COSMOS 2589,2025-131A,2026-06-19T18:32:14.432064,1.00271484,.000021,0.0416,86.6775,22.0919,175.2579,0,U,64467,999,358,0,-.296E-5,0
CHINASAT 9C,2025-132A,2026-06-20T02:59:51.086976,1.00273496,.00030758,0.0135,60.7381,25.9398,318.8046,0,U,64470,999,417,0,-.253E-5,0
MTG-S1,2025-143A,2026-06-20T05:58:28.142112,1.00399656,.00008377,0.6005,339.6947,293.6415,82.1875,0,U,64723,999,345,0,-.6E-7,0
DROR 1,2025-148A,2026-06-20T05:57:58.189824,1.00271283,.00026341,0.0434,72.4195,318.5988,322.9231,0,U,64784,999,332,0,-.39E-6,0
SHIYAN-29,2025-196A,2026-06-20T01:17:59.181216,1.00284739,.00125398,28.8247,18.4992,177.1148,186.8195,0,U,65486,999,291,0,-.285E-5,0
NUSANTARA LIMA (NUSANTARA 5),2025-205A,2026-06-20T05:36:38.701728,1.00270888,.00001069,0.0402,170.2138,338.1799,317.0614,0,U,65588,999,275,0,-.362E-5,0
TJS-20,2025-238A,2026-06-20T00:21:02.127744,1.00267297,.00041897,5.4622,299.5493,158.1883,238.2077,0,U,66142,999,236,0,.19E-6,0
CMS-03 (GSAT-7R),2025-249B,2026-06-20T04:37:39.393984,1.00271424,.00016796,0.0148,76.5869,6.2769,328.9376,0,U,66311,999,237,0,-.82E-6,0
VIASAT-3 F2,2025-261A,2026-06-19T21:03:23.488416,1.00270370,.00000479,0.0363,174.4747,277.7870,52.7047,0,U,66454,999,282,0,-.239E-5,0
SHIJIAN-28 (SJ-28),2025-277A,2026-06-20T05:12:38.862144,1.00276113,.0001147,4.5294,272.0859,39.5366,151.7418,0,U,66549,999,218,0,-.365E-5,0
TJS-22,2025-290A,2026-06-19T20:50:44.059200,1.00274060,.00019542,1.5225,286.5967,330.2294,30.4576,0,U,66990,999,205,0,-.13E-6,0
TJS-23,2025-306A,2026-06-19T14:16:57.988704,1.00266223,.00047257,5.5825,297.4740,175.6001,184.5544,0,U,67226,999,191,0,.1E-6,0
FENGYUN 4C,2025-312A,2026-06-20T06:37:03.612000,1.00271020,.00003325,0.0452,144.2582,54.3344,302.1536,0,U,67246,999,181,0,-.328E-5,0
SHIJIAN-29A (SJ-29A),2025-315A,2026-06-20T02:54:44.076672,1.00270153,.00032596,3.4063,95.0344,24.0481,266.1065,0,U,67302,999,164,0,-.72E-6,0
SHIJIAN-29B (SJ-29B),2025-315C,2026-06-20T02:54:44.076672,1.00270047,.00040567,3.4052,95.0273,34.8918,255.3079,0,U,67403,999,171,0,-.73E-6,0
ELEKTRO-L 5,2026-028A,2026-06-20T01:02:46.276224,1.00272291,.00017499,0.2466,312.6978,180.6855,226.6194,0,U,67756,999,128,0,-.103E-5,0
